ONEWEB-0387             
1 49313U 21090AL  24066.79951332  .00000082  00000+0  17024-3 0  9995
2 49313  87.9125  80.1620 0001977 102.2767 257.8587 13.20773243121255
ONEWEB-0388             
1 49314U 21090AM  24066.56036806 -.00000005  00000+0 -43673-4 0  9998
2 49314  87.9132 110.7202 0002149  95.0975 265.0403 13.19725909116595
ONEWEB-0389             
1 50469U 21132A   24066.33091495 -.00000010  00000+0 -58625-4 0  9997
2 50469  87.9266 171.5395 0002026 121.4176 238.7154 13.17649818108408
ONEWEB-0390             
1 50470U 21132B   24066.33249801  .00000102  00000+0  23029-3 0  9994
2 50470  87.9266 171.5472 0001557 117.8009 242.3280 13.17650755108401
ONEWEB-0391             
1 50471U 21132C   24066.33407373  .00000111  00000+0  25181-3 0  9996
2 50471  87.9274 171.5216 0002189 117.2373 242.8981 13.17649831108403
ONEWEB-0392             
1 50472U 21132D   24066.36413204  .00000163  00000+0  38578-3 0  9991
2 50472  87.9257 171.5315 0001914 117.2434 242.8893 13.17650773108441
ONEWEB-0393             
1 50473U 21132E   24066.34042705 -.00000038  00000+0 -12792-3 0  9997
2 50473  87.9270 171.5027 0001674 120.3482 239.7817 13.19246485108431
ONEWEB-0394             
1 50474U 21132F   24066.58087843  .00000024  00000+0  27646-4 0  9994
2 50474  87.9209 141.1832 0002082 106.6284 253.5077 13.18687322111863
ONEWEB-0395             
1 50475U 21132G   24066.38816816  .00000399  00000+0  10892-2 0  9991
2 50475  87.9033 186.6688 0001778 116.3270 243.8041 13.11417334106567
ONEWEB-0396             
1 50476U 21132H   24066.57455137  .00000111  00000+0  24818-3 0  9994
2 50476  87.9215 141.1776 0002190 106.0898 254.0476 13.18688102111905
ONEWEB-0397             
1 50477U 21132J   24066.58877997  .00000033  00000+0  51466-4 0  9991
2 50477  87.9215 141.1760 0002194 106.5161 253.6212 13.18686392111880
ONEWEB-0398             
1 50478U 21132K   24066.35568165 -.00000437  00000+0 -12694-2 0  9999
2 50478  87.9026 186.6587 0001494 121.7024 238.4249 13.11415022106452
ONEWEB-0399             
1 50479U 21132L   24066.34108330  .00000058  00000+0  12859-3 0  9994
2 50479  87.9026 186.6767 0002141 102.6475 257.4893 13.11414258106446
ONEWEB-0400             
1 50480U 21132M   24066.56822212  .00002775  00000+0  70039-2 0  9993
2 50480  87.9207 141.1866 0002013 114.7873 245.3468 13.18689199111871
ONEWEB-0401             
1 50481U 21132N   24066.76270069 -.00001824  00000+0 -46619-2 0  9996
2 50481  87.9258 141.1490 0002049  93.8603 266.2763 13.18669299113183
ONEWEB-0402             
1 50482U 21132P   24066.57613402 -.00000049  00000+0 -15617-3 0  9991
2 50482  87.9210 141.1810 0002027  86.4731 273.6633 13.18686793111908
ONEWEB-0403             
1 50483U 21132Q   24066.59983979  .00000004  00000+0 -23205-4 0  9996
2 50483  87.9211 141.1819 0002244 103.9586 256.1796 13.18683207111861
ONEWEB-0404             
1 50484U 21132R   24066.32323555  .00000555  00000+0  15296-2 0  9995
2 50484  87.9036 186.6442 0002165 117.4136 242.7213 13.11415653106530
ONEWEB-0405             
1 50485U 21132S   24066.76740976  .00000077  00000+0  16134-3 0  9996
2 50485  87.9212 141.1382 0002337  95.6613 264.4786 13.18687127113576
ONEWEB-0406             
1 50486U 21132T   24066.22521139  .00000123  00000+0  27921-3 0  9994
2 50486  87.9215 141.2547 0002116 115.3070 244.8282 13.18684924111849
ONEWEB-0407             
1 50487U 21132U   24066.59825834  .00000025  00000+0  31297-4 0  9997
2 50487  87.9209 141.1873 0002190 101.0783 259.0596 13.18687776111832
ONEWEB-0409             
1 50488U 21132V   24066.32161081  .00000773  00000+0  21460-2 0  9995
2 50488  87.9030 186.6502 0001797 124.8580 235.2717 13.11415411106426
ONEWEB-0412             
1 50489U 21132W   24066.58720242  .00000017  00000+0  95873-5 0  9997
2 50489  87.9213 141.1842 0002414  94.7016 265.4391 13.18684644111926
ONEWEB-0413             
1 50490U 21132X   24066.59196125  .00000636  00000+0  15793-2 0  9994
2 50490  87.9213 141.1968 0002152  91.0763 269.0616 13.18684711111863
ONEWEB-0414             
1 50491U 21132Y   24066.57771925 -.00000111  00000+0 -31538-3 0  9996
2 50491  87.9209 141.1819 0002368 102.5649 257.5748 13.18686071111896
ONEWEB-0417             
1 50492U 21132Z   24066.58561781  .00000007  00000+0 -13716-4 0  9997
2 50492  87.9216 141.1762 0002066 112.7690 247.3661 13.18687048111870
ONEWEB-0418             
1 50493U 21132AA  24066.21966932  .00000174  00000+0  40922-3 0  9997
2 50493  87.9214 141.2574 0002252 117.8386 242.2974 13.18687824111880
ONEWEB-0419             
1 50494U 21132AB  24066.76424600 -.00000036  00000+0 -12369-3 0  9992
2 50494  87.9209 141.1685 0001895 115.9816 244.1511 13.18687661113166
ONEWEB-0420             
1 50495U 21132AC  24066.57929900  .00000010  00000+0 -72217-5 0  9996
2 50495  87.9209 141.2140 0001909  92.8974 267.2377 13.18684644111845
ONEWEB-0421             
1 50496U 21132AD  24066.57297881 -.00000018  00000+0 -79549-4 0  9996
2 50496  87.9218 141.1731 0002400  98.7934 261.3470 13.18687357111886
ONEWEB-0424             
1 50497U 21132AE  24066.22836953  .00000127  00000+0  28934-3 0  9998
2 50497  87.9215 141.2522 0001534 116.8974 243.2315 13.18687551111867
ONEWEB-0426             
1 50498U 21132AF  24066.19043462  .00000068  00000+0  13852-3 0  9997
2 50498  87.9210 141.2812 0002565 113.2488 246.8914 13.18686498111808
ONEWEB-0427             
1 50499U 21132AG  24066.22677924  .00000166  00000+0  38730-3 0  9999
2 50499  87.9210 141.2498 0002089 111.2424 248.8931 13.18688120111836
ONEWEB-0429             
1 50500U 21132AH  24066.59352275  .00000020  00000+0  17901-4 0  9998
2 50500  87.9215 141.1770 0001938 101.8202 258.3148 13.18685556111855
ONEWEB-0430             
1 50501U 21132AJ  24066.58245740  .00000004  00000+0 -22798-4 0  9999
2 50501  87.9212 141.1874 0001409 104.1531 255.9758 13.18688041111898
ONEWEB-0432             
1 50502U 21132AK  24066.76582001  .00000049  00000+0  90898-4 0  9998
2 50502  87.9212 141.1451 0001865 102.4497 257.6844 13.18686874113178
ONEWEB-0440             
1 50503U 21132AL  24066.22205508  .00000069  00000+0  14336-3 0  9998
2 50503  87.9217 141.2385 0002428  92.2805 267.8605 13.18687290111793
ONEWEB-0450             
1 50504U 21132AM  24066.59510634  .00000042  00000+0  73550-4 0  9993
2 50504  87.9214 141.1924 0001747  92.0207 268.1125 13.18687136111875
ONEWEB-0410             
1 51622U 22012A   24066.34990000  .00000064  00000+0  13143-3 0  9990
2 51622  87.9263 171.5219 0002873 121.7363 238.4049 13.17650464104026
ONEWEB-0411             
1 51623U 22012B   24066.41099280 -.00000329  00000+0 -97879-3 0  9993
2 51623  87.8969 201.6967 0001399 110.3643 249.7634 13.10376027100227
ONEWEB-0415             
1 51624U 22012C   24066.40776246 -.00000458  00000+0 -13481-2 0  9996
2 51624  87.8964 201.7245 0001344 114.6923 245.4344 13.10372707100223
ONEWEB-0416             
1 51625U 22012D   24066.41913399  .00000023  00000+0  29953-4 0  9999
2 51625  87.8973 201.7108 0001705 104.8551 255.2765 13.10377282100264
ONEWEB-0422             
1 51626U 22012E   24066.35938423  .00000049  00000+0  93963-4 0  9998
2 51626  87.9263 171.5176 0001804  81.6010 278.5326 13.17650564104134
ONEWEB-0423             
1 51627U 22012F   24066.35305098  .00000069  00000+0  14389-3 0  9991
2 51627  87.9266 171.5184 0001886 104.3011 255.8330 13.17650687104028
ONEWEB-0425             
1 51628U 22012G   24066.42888980  .00000517  00000+0  14438-2 0  9998
2 51628  87.8968 201.6958 0002124 103.4259 256.7106 13.10375949100262
ONEWEB-0428             
1 51629U 22012H   24066.40937247 -.00000370  00000+0 -10961-2 0  9994
2 51629  87.8969 201.7136 0001426  91.7692 268.3598 13.10375587100225
ONEWEB-0431             
1 51630U 22012J   24066.37838222  .00000361  00000+0  99887-3 0  9998
2 51630  87.8954 201.7232 0000893 105.6539 254.4687 13.10370254100276
ONEWEB-0434             
1 51631U 22012K   24066.43213295  .00000659  00000+0  18508-2 0  9993
2 51631  87.8970 201.7204 0001689  95.3975 264.7345 13.10376474100261
ONEWEB-0435             
1 51632U 22012L   24066.44026076  .00000733  00000+0  20632-2 0  9998
2 51632  87.8969 201.7091 0001517  87.4734 272.6567 13.10373651100256
ONEWEB-0436             
1 51633U 22012M   24066.34515136  .00000141  00000+0  33038-3 0  9996
2 51633  87.9261 171.5287 0001791  97.7124 262.4211 13.17650694104007
ONEWEB-0438             
1 51634U 22012N   24066.42400710  .00000340  00000+0  93825-3 0  9998
2 51634  87.8971 201.7130 0001873 104.2341 255.8994 13.10377100100285
ONEWEB-0439             
1 51635U 22012P   24066.42726004  .00000437  00000+0  12168-2 0  9993
2 51635  87.8972 201.6964 0001595 103.7421 256.3884 13.10376598100267
ONEWEB-0442             
1 51636U 22012Q   24066.33644527  .00000048  00000+0  90181-4 0  9994
2 51636  87.9264 171.5616 0002299 126.0283 234.1062 13.17651480103996
ONEWEB-0443             
1 51637U 22012R   24066.81184348  .00000103  00000+0  23161-3 0  9993
2 51637  87.9265 171.4739 0002018  91.6499 268.4864 13.17650898105396
ONEWEB-0444             
1 51638U 22012S   24066.41750056  .00000015  00000+0  61283-5 0  9996
2 51638  87.8967 201.7255 0001711  96.4841 263.6481 13.10377275100270
ONEWEB-0445             
1 51639U 22012T   24066.43864283  .00000723  00000+0  20351-2 0  9991
2 51639  87.8959 201.6979 0001653 115.6303 244.4996 13.10373181100287
ONEWEB-0446             
1 51640U 22012U   24066.41588548 -.00000182  00000+0 -55863-3 0  9996
2 51640  87.8972 201.7175 0001421 115.4170 244.7105 13.10365101100262
ONEWEB-0448             
1 51641U 22012V   24066.42075075  .00000058  00000+0  13086-3 0  9995
2 51641  87.8972 201.7176 0001736  97.6527 262.4797 13.10377658100231
ONEWEB-0449             
1 51642U 22012W   24066.42563185  .00000365  00000+0  10081-2 0  9992
2 51642  87.8967 201.7176 0001918 106.9442 253.1895 13.10377084100248
